367P/Catalina,e,8.4621,58.7212,172.9023,3.505874,0.1501446,0.28017686,170.6085,07/31.0/2021,2000,g 17.5,2.0
# From MPC114610
368P/NEAT,e,15.4812,257.9355,118.7984,5.527166,0.0758491,0.62647392,79.6621,07/31.0/2021,2000,g 14.0,4.0
# From MPC114610
369P/Hill,e,10.3151,47.2939,13.1742,4.384012,0.1073734,0.55451846,109.4979,07/31.0/2021,2000,g 15.0,4.0
# From MPEC 2021-F20
370P/NEAT,e,19.4067,55.1116,356.6808,6.434649,0.0603833,0.61467705,69.2810,07/31.0/2021,2000,g 13.0,4.0
# From MPC114610
371P/LINEAR-Skiff,e,17.3779,67.2949,308.4681,4.180987,0.1152885,0.47672557,118.7398,07/31.0/2021,2000,g 16.0,4.0
# From MPEC 2020-K19
372P/McNaught,e,9.5101,325.8157,27.3343,4.504806,0.1030837,0.15273573,104.3980,07/31.0/2021,2000,g 13.5,4.0
# From MPEC 2021-F20
373P/Rinner,e,13.7622,231.9483,221.0882,3.803352,0.1328784,0.39222409,112.1845,07/31.0/2021,2000,g 14.5,4.0
# From MPC114610
374P/Larson,e,10.7643,7.9122,51.4815,4.973357,0.0888648,0.46259879,82.8425,07/31.0/2021,2000,g 14.0,4.0
# From MPEC 2021-F20
375P/Hill,e,17.3613,359.9463,119.4494,5.555699,0.0752655,0.65854819,71.7335,07/31.0/2021,2000,g 16.0,4.0
# From MPEC 2020-W26
376P/LONEOS,e,1.1898,314.7513,284.7074,5.828107,0.0700508,0.51728269,47.1717,07/31.0/2021,2000,g 12.5,4.0
# From MPEC 2021-N06
377P/Scotti,e,9.0233,226.0606,355.0436,6.710169,0.0567027,0.25227209,21.7737,07/31.0/2021,2000,g  9.5,4.0
# From MPEC 2021-O56
378P/McNaught,e,19.0545,94.3898,193.8826,6.377334,0.0611991,0.47025593,17.4147,07/31.0/2021,2000,g 12.0,4.0
# From MPC115889
379P/Spacewatch,e,12.4250,183.8247,30.9440,3.520295,0.1492229,0.34024272,108.9103,07/31.0/2021,2000,g 15.0,4.0
# From MPEC 2020-KB7
380P/PANSTARRS,e,8.2826,132.9785,88.2239,4.504635,0.1030896,0.33336257,81.4575,07/31.0/2021,2000,g 12.5,4.0
# From MPEC 2021-J28
381P/LINEAR-Spacewatch,e,28.3763,173.7680,173.1788,7.124955,0.0518240,0.68187951,34.8735,07/31.0/2021,2000,g 17.5,2.0
# From MPEC 2021-O56
382P/Larson,e,7.9332,174.7606,173.1564,6.420982,0.0605762,0.31349033,346.2109,07/31.0/2021,2000,g  8.0,4.0
# From MPC118844
383P/Christensen,e,12.3214,207.8638,133.6902,3.545432,0.1476387,0.59961874,95.0289,07/31.0/2021,2000,g 18.0,4.0
# From MPEC 2020-W26
384P/Kowalski,e,7.2841,354.2289,37.6187,2.900983,0.1994740,0.61564246,131.3409,07/31.0/2021,2000,g 19.5,4.0
# From MPEC 2021-F20
385P/Hill,e,16.8303,357.0614,44.3231,4.288362,0.1109857,0.40153480,76.0373,07/31.0/2021,2000,g 13.0,4.0
# From MPEC 2021-L04
386P/PANSTARRS,e,15.2296,134.9480,353.2153,4.056435,0.1206389,0.41626830,41.7116,07/31.0/2021,2000,g 14.5,4.0
# From MPEC 2021-J28
387P/Boattini,e,8.9193,259.3130,162.7706,4.798301,0.0937719,0.73615056,65.0542,07/31.0/2021,2000,g 15.0,4.0
# From MPEC 2021-F20
388P/Gibbs,e,23.8700,37.0422,42.3546,5.243758,0.0820805,0.61804163,60.6112,07/31.0/2021,2000,g 13.0,4.0
# From MPEC 2021-J28
389P/Siding Spring,e,160.0702,218.8533,249.3160,5.627622,0.0738273,0.70431121,42.8041,07/31.0/2021,2000,g 16.0,4.0
# From MPEC 2021-O56
390P/Gibbs,e,18.5619,152.2748,232.3523,5.803993,0.0704878,0.70716370,34.9400,07/31.0/2021,2000,g 12.0,4.0
# From MPEC 2021-F20
391P/Kowalski,e,21.2758,124.7313,187.0219,4.679364,0.0973697,0.12063293,119.5367,07/31.0/2021,2000,g  8.0,4.0
# From MPEC 2021-J28
392P/LINEAR,e,4.9305,24.8811,71.9548,6.145121,0.0647006,0.68278923,31.4588,07/31.0/2021,2000,g 14.5,4.0
# From MPEC 2021-BE3
393P/Spacewatch-Hill,e,16.7905,36.4145,328.2814,4.787094,0.0941014,0.12059284,60.5995,07/31.0/2021,2000,g 11.0,4.0
# From MPEC 2020-KB7
394P/PANSTARRS,e,8.5294,98.1251,54.5213,4.332006,0.1093127,0.36780248,66.5412,07/31.0/2021,2000,g 16.0,2.4
# From MPEC 2021-O56
395P/Catalina-NEAT,e,3.2771,223.7408,89.7968,6.545115,0.0588611,0.37894938,351.0138,07/31.0/2021,2000,g 10.0,4.0
# From MPEC 2020-KB7
396P/,e,5.4363,136.6641,8.5827,6.816895,0.0553763,0.41587922,38.9044,07/31.0/2021,2000,g 12.0,4.0
# From MPEC 2021-O56
397P/Lemmon,e,10.9285,8.2018,14.4410,3.827704,0.1316123,0.40509954,53.5131,07/31.0/2021,2000,g 12.0,4.0
# From MPEC 2021-L04
398P/Boattini,e,11.0154,127.4619,320.2299,3.128134,0.1781459,0.58263826,38.5254,07/31.0/2021,2000,g 15.5,4.0
# From MPEC 2021-F20
399P/PANSTARRS,e,13.3188,207.1454,214.2936,3.789497,0.1336078,0.44688478,9.2763,07/31.0/2021,2000,g 15.6,4.0
# From MPEC 2020-FB5
400P/PANSTARRS,e,10.9291,176.3947,238.7940,3.559957,0.1467361,0.40916361,25.0753,07/31.0/2021,2000,g 15.5,2.8
# From MPEC 2021-BE3
401P/McNaught,e,12.8035,359.8845,309.3372,5.773019,0.0710558,0.58010336,42.7304,07/31.0/2021,2000,g 12.5,4.0
# From MPEC 2021-J28
402P/LINEAR,e,30.8527,123.0894,326.7403,7.011371,0.0530884,0.43836177,352.7482,07/31.0/2021,2000,g  8.0,4.0
# From MPEC 2021-J28
403P/Catalina,e,12.3211,163.8126,277.6632,5.427299,0.0779522,0.50343129,24.7617,07/31.0/2021,2000,g 12.0,4.0
# From MPEC 2021-N06
404P/Bressi,e,9.7305,261.6747,162.7910,4.820715,0.0931187,0.13698202,286.8629,07/31.0/2021,2000,g 10.0,4.0
# From MPEC 2021-L04
405P/Lemmon,e,9.3654,3.3134,112.2383,3.608783,0.1437682,0.68914056,31.4410,07/31.0/2021,2000,g 17.5,4.0
# From MPEC 2021-F20
406P/Gibbs,e,1.2135,11.4711,352.3818,3.574377,0.1458490,0.54201037,46.4178,07/31.0/2021,2000,g 17.0,4.0
# From MPEC 2021-F20
407P/PANSTARRS-Fuls,e,4.8909,80.8070,92.6395,3.460291,0.1531211,0.38466183,83.5540,07/31.0/2021,2000,g 14.0,4.0
# From MPEC 2021-O56
408P/Novichonok-Gerke,e,19.3319,189.4474,226.0657,4.760444,0.0948927,0.27107925,319.3221,07/31.0/2021,2000,g 11.0,4.0
# From MPEC 2021-O56
409P/LONEOS-Hill,e,17.1188,143.6713,15.1312,6.047494,0.0662737,0.70995687,12.1839,07/31.0/2021,2000,g 14.0,4.0
# From MPEC 2021-F20
410P/NEAT-LINEAR,e,9.3938,139.9804,313.0936,6.632200,0.0577056,0.51041433,2.1607,07/31.0/2021,2000,g 12.5,4.0
# From MPEC 2021-J28
411P/Christensen,e,12.3776,77.6706,46.6688,5.818066,0.0702322,0.58084203,13.1747,07/31.0/2021,2000,g 13.5,4.0
# From MPEC 2021-F20
412P/WISE,e,8.9312,0.8491,155.9165,3.109559,0.1797446,0.47979743,42.7142,07/31.0/2021,2000,g 17.0,4.0
# From MPEC 2021-O56
413P/Larson,e,15.9783,39.0253,186.0408,3.710349,0.1379056,0.42326768,1.4881,07/31.0/2021,2000,g 14.0,4.0
# From MPEC 2021-BE3
414P/STEREO,e,23.3838,257.7893,210.7310,2.794635,0.2109679,0.81164351,39.3710,07/31.0/2021,2000,g 19.0,4.0
# From MPEC 2021-N06
415P/Tenagra,e,31.7914,160.2944,346.2620,4.115683,0.1180433,0.19478898,19.5743,07/31.0/2021,2000,g 12.0,4.0
# From MPEC 2021-L04
416P/Scotti,e,3.3613,355.8122,134.5133,4.013356,0.1225865,0.45435500,20.2930,07/31.0/2021,2000,g 15.5,4.0
# From MPEC 2021-O56
417P/NEOWISE,e,8.1308,111.3510,129.4653,3.348568,0.1608479,0.55442396,16.0548,07/31.0/2021,2000,g 16.5,4.0
# From MPEC 2021-L04
418P/LINEAR,e,5.7974,277.6591,307.0966,5.081145,0.0860521,0.66485914,353.2396,07/31.0/2021,2000,g 13.0,4.0
# From MPEC 2021-N06
419P/PANSTARRS,e,2.8028,40.3898,187.4946,3.521613,0.1491391,0.27781055,346.8111,07/31.0/2021,2000,g 12.5,4.0
# From MPEC 2021-O56
420P/Hill,e,14.5033,173.9593,157.1349,5.521280,0.0759704,0.49497550,337.5303,07/31.0/2021,2000,g 11.5,4.0
# From MPEC 2021-L04
421P/McNaught,e,10.0804,55.3486,259.8203,5.075805,0.0861880,0.67560982,16.0460,07/31.0/2021,2000,g 14.0,4.0
# From MPC107687
1I/`Oumuamua,h,09/09.4886/2017,122.6778,24.5997,241.6845,1.199252,0.255240,2000,23.0,2.0
# From MPEC 2020-K19
2I/Borisov,h,12/08.5549/2019,44.0527,308.1480,209.1251,3.356636,2.006548,2000,11.0,4.0
